{
  "norad_id": 49107,
  "name": "ONEWEB-0329",
  "history": [
    {
      "epoch": "2026-03-28T20:11:35.670048",
      "apogee_km": 1195.0552149457699,
      "perigee_km": 1192.3649376795565,
      "latitude_deg": 84.13846973176896,
      "longitude_deg": -108.52703328011557,
      "semi_major_axis_km": 7571.847076312663,
      "eccentricity": 0.00017765,
      "inclination_deg": 87.9178,
      "raan_deg": 21.824,
      "arg_perigee_deg": 74.0704,
      "mean_anomaly_deg": 286.0623,
      "mean_motion_rev_day": 13.17649831
    }
  ]
}