{"fetched_at":"2026-03-29T16:36:15Z","count":15609,"tles":[{"name":"ONEWEB-0329","line1":"1 49107U 21075AJ  26087.84138507  .00000019  00000+0  15279-4 0  9992","line2":"2 49107  87.9178  21.8240 0001776  74.0704 286.0623 13.17649831223000","category":"Other"}]}